ONEWEB-0683             
1 56719U 23068K   24134.75531271  .00000209  00000+0  52212-3 0  9997
2 56719  87.9054  51.2981 0002072  70.6573 289.4781 13.15547803 49614
ONEWEB-0684             
1 56720U 23068L   24135.14352494  .00000262  00000+0  66218-3 0  9991
2 56720  87.9059  51.2973 0003055 106.2419 253.9048 13.15546791 49492
ONEWEB-0686             
1 56721U 23068M   24135.17024330  .00000052  00000+0  10220-3 0  9999
2 56721  87.9131  20.9127 0002019  82.0360 278.1000 13.16594385 51889
ONEWEB-0694             
1 56722U 23068N   24134.66942698  .00000202  00000+0  49981-3 0  9992
2 56722  87.9131  20.9298 0002050  67.6189 292.5159 13.16005815 51174
ONEWEB-0696             
1 56723U 23068P   24135.17678789 -.00000047  00000+0 -15922-3 0  9994
2 56723  87.9057  51.2645 0001764  87.7883 272.3449 13.15552177 49611
ONEWEB-0703             
1 56724U 23068Q   24135.49052542 -.00000492  00000+0 -13402-2 0  9997
2 56724  87.9055  51.2232 0001640 122.0195 238.1095 13.15548988 49548
ONEWEB-0721             
1 56725U 23068R   24135.08861735  .00006687  00000+0  78056-3 0  9992
2 56725  86.6790 350.3471 0012422  42.5091 317.7092 14.84980165 54147
